*******************************************************************************
Ephemeris / WWW_USER Wed Mar 14 15:48:49 2018 Pasadena, USA      / Horizons    
*******************************************************************************
Target body name: Umbriel (702)                   {source: ura111}
Center body name: Solar System Barycenter (0)     {source: DE431mx}
Center-site name: BODY CENTER
*******************************************************************************
Start time      : A.D. 2000-Jan-01 00:00:00.0000 TDB
Stop  time      : A.D. 2001-Jan-01 00:00:00.0000 TDB
Step-size       : 7200 minutes
*******************************************************************************
Center geodetic : 0.00000000,0.00000000,0.0000000 {E-lon(deg),Lat(deg),Alt(km)}
Center cylindric: 0.00000000,0.00000000,0.0000000 {E-lon(deg),Dxy(km),Dz(km)}
Center radii    : (undefined)                                                  
Output units    : AU-D                                                         
Output type     : GEOMETRIC cartesian states
Output format   : 2 (position and velocity)
Reference frame : ICRF/J2000.0                                                 
Coordinate systm: Ecliptic and Mean Equinox of Reference Epoch                 
*******************************************************************************
JDTDB
   X     Y     Z
   VX    VY    VZ
*******************************************************************************
$$SOE
2451544.500000000 = A.D. 2000-Jan-01 00:00:00.0000 TDB 
   1.442496933540102E+01 -1.373889195176515E+01 -2.385954678826147E-01
   1.604991706962358E-03  2.561940131803714E-03 -2.484621511505723E-03
2451549.500000000 = A.D. 2000-Jan-06 00:00:00.0000 TDB 
   1.443653814772544E+01 -1.372530452012298E+01 -2.397930259795598E-01
   7.043084156879610E-05  3.284146794115223E-03  2.963472178002662E-04
2451554.500000000 = A.D. 2000-Jan-11 00:00:00.0000 TDB 
   1.444846982212375E+01 -1.371143291688182E+01 -2.384271743546381E-01
   2.364761976891903E-03  3.104977104899870E-03  2.627180942633325E-03
2451559.500000000 = A.D. 2000-Jan-16 00:00:00.0000 TDB 
   1.446291998709052E+01 -1.369805108854257E+01 -2.366817206758585E-01
   5.112047379499669E-03  2.288649085639118E-03  1.061427114742771E-03
2451564.500000000 = A.D. 2000-Jan-21 00:00:00.0000 TDB 
   1.447831720883587E+01 -1.368519146537674E+01 -2.372867217153291E-01
   4.294618111519235E-03  2.037627785877413E-03 -2.069250432299571E-03
2451569.500000000 = A.D. 2000-Jan-26 00:00:00.0000 TDB 
   1.449171477515300E+01 -1.367211003356194E+01 -2.395310689060657E-01
   1.125653037279736E-03  2.712258617225397E-03 -2.227978841878851E-03
2451574.500000000 = A.D. 2000-Jan-31 00:00:00.0000 TDB 
   1.450304840843648E+01 -1.365836713290026E+01 -2.403315933998673E-01
   1.923118584887964E-04  3.341253760356202E-03  8.325382153459918E-04
2451579.500000000 = A.D. 2000-Feb-05 00:00:00.0000 TDB 
   1.451525246921142E+01 -1.364446758249862E+01 -2.386860243103950E-01
   2.890858855548035E-03  3.002759575897497E-03  2.651028340933546E-03
2451584.500000000 = A.D. 2000-Feb-10 00:00:00.0000 TDB 
   1.452998000882487E+01 -1.363113155905990E+01 -2.371867249520354E-01
   5.250028631789303E-03  2.196907261930244E-03  5.449399175507313E-04
2451589.500000000 = A.D. 2000-Feb-15 00:00:00.0000 TDB 
   1.454516018879421E+01 -1.361823191680415E+01 -2.382006204350430E-01
   3.828674644899987E-03  2.107581026325697E-03 -2.373130750920151E-03
2451594.500000000 = A.D. 2000-Feb-20 00:00:00.0000 TDB 
   1.455806473391507E+01 -1.360499027297357E+01 -2.404207061897727E-01
   7.128725657684524E-04  2.860999003831313E-03 -1.876464444716189E-03
2451599.500000000 = A.D. 2000-Feb-25 00:00:00.0000 TDB 
   1.456924928796491E+01 -1.359110719978676E+01 -2.407953773321709E-01
   4.157827662015628E-04  3.370636262879157E-03  1.329782359651921E-03
2451604.500000000 = A.D. 2000-Mar-01 00:00:00.0000 TDB 
   1.458176968347342E+01 -1.357719963925836E+01 -2.389418223358061E-01
   3.408838145696926E-03  2.887165950836651E-03  2.565657581152030E-03
2451609.500000000 = A.D. 2000-Mar-06 00:00:00.0000 TDB 
   1.459671777888927E+01 -1.356390672197625E+01 -2.377564475873190E-01
   5.279919198003603E-03  2.125116123655953E-03  1.928873858249941E-06
2451614.500000000 = A.D. 2000-Mar-11 00:00:00.0000 TDB 
   1.461159931740008E+01 -1.355094425058542E+01 -2.391406458712602E-01
   3.314103253533114E-03  2.202067326962665E-03 -2.575894629604239E-03
2451619.500000000 = A.D. 2000-Mar-16 00:00:00.0000 TDB 
   1.462402641638482E+01 -1.353753419772556E+01 -2.412493992879791E-01
   3.792824266367334E-04  3.002526600880577E-03 -1.450869215621937E-03
2451624.500000000 = A.D. 2000-Mar-21 00:00:00.0000 TDB 
   1.463514604537099E+01 -1.352352823492904E+01 -2.411868926259341E-01
   7.324062680730255E-04  3.372407862886127E-03  1.775451675656339E-03
2451629.500000000 = A.D. 2000-Mar-26 00:00:00.0000 TDB 
   1.464801540363281E+01 -1.350963152174105E+01 -2.392072899058424E-01
   3.896320877694880E-03  2.762573591434660E-03  2.367225653385899E-03
2451634.500000000 = A.D. 2000-Mar-31 00:00:00.0000 TDB 
   1.466310864977252E+01 -1.349637343724917E+01 -2.383927034358453E-01
   5.197481162767007E-03  2.078169800264175E-03 -5.388479856442797E-04
2451639.500000000 = A.D. 2000-Apr-05 00:00:00.0000 TDB 
   1.467762514216340E+01 -1.348332669991412E+01 -2.400944056019724E-01
   2.774219209962216E-03  2.316190726736995E-03 -2.675969604332514E-03
2451644.500000000 = A.D. 2000-Apr-10 00:00:00.0000 TDB 
   1.468960527142067E+01 -1.346974422969321E+01 -2.420114650636401E-01
   1.357059642016243E-04  3.132823191088334E-03 -9.630901419655477E-04
2451649.500000000 = A.D. 2000-Apr-15 00:00:00.0000 TDB 
   1.470074798995924E+01 -1.345563598488492E+01 -2.415183718760032E-01
   1.134001603059133E-03  3.344768331987899E-03  2.143553544889955E-03
2451654.500000000 = A.D. 2000-Apr-20 00:00:00.0000 TDB 
   1.471398036277302E+01 -1.344176623429234E+01 -2.395042557731773E-01
   4.326070410034385E-03  2.636897734400962E-03  2.069810585205189E-03
2451659.500000000 = A.D. 2000-Apr-25 00:00:00.0000 TDB 
   1.472913875583463E+01 -1.342853081033221E+01 -2.390964296521141E-01
   5.012974225414113E-03  2.056732966457053E-03 -1.056318189122538E-03
2451664.500000000 = A.D. 2000-Apr-30 00:00:00.0000 TDB 
   1.474323551776975E+01 -1.341537956965636E+01 -2.410529033090120E-01
   2.225444032559821E-03  2.447115096916478E-03 -2.667827760823722E-03
2451669.500000000 = A.D. 2000-May-05 00:00:00.0000 TDB 
   1.475481836908989E+01 -1.340162525964213E+01 -2.427005978000638E-01
   7.189816462385123E-08  3.245053928189116E-03 -4.342202270418489E-04
2451674.500000000 = A.D. 2000-May-10 00:00:00.0000 TDB 
   1.476606937628095E+01 -1.338743765822773E+01 -2.418048267298605E-01
   1.594200804513272E-03  3.291296860762064E-03  2.418120496735232E-03
2451679.500000000 = A.D. 2000-May-15 00:00:00.0000 TDB 
   1.477965763135130E+01 -1.337360572462057E+01 -2.398432431961101E-01
   4.686127542674157E-03  2.514871461004149E-03  1.688772743166653E-03
2451684.500000000 = A.D. 2000-May-20 00:00:00.0000 TDB 
   1.479479926496668E+01 -1.336037833652370E+01 -2.398633196140413E-01
   4.727332563805159E-03  2.062943944064568E-03 -1.533460194107988E-03
2451689.500000000 = A.D. 2000-May-25 00:00:00.0000 TDB 
   1.480843217607355E+01 -1.334710242161919E+01 -2.419955479155497E-01
   1.694042077612270E-03  2.589752332503294E-03 -2.546639282299302E-03
2451694.500000000 = A.D. 2000-May-30 00:00:00.0000 TDB 
   1.481968127010236E+01 -1.333318184703537E+01 -2.433104780638793E-01
  -2.705152440598335E-05  3.335467898523911E-03  1.094874089990797E-04
2451699.500000000 = A.D. 2000-Jun-04 00:00:00.0000 TDB 
   1.483111360818021E+01 -1.331893676088654E+01 -2.420515586104474E-01
   2.098422321581021E-03  3.214624434737565E-03  2.595048736641412E-03
2451704.500000000 = A.D. 2000-Jun-09 00:00:00.0000 TDB 
   1.484503677796635E+01 -1.330515042113049E+01 -2.402292572959149E-01
   4.959056924550295E-03  2.401448282321616E-03  1.232247490743960E-03
2451709.500000000 = A.D. 2000-Jun-14 00:00:00.0000 TDB 
   1.486007058013139E+01 -1.329191224092385E+01 -2.406825285039381E-01
   4.352560577355944E-03  2.097726338145249E-03 -1.944520758924408E-03
2451714.500000000 = A.D. 2000-Jun-19 00:00:00.0000 TDB 
   1.487321495280236E+01 -1.327849502165951E+01 -2.429062409192967E-01
   1.200119832987236E-03  2.737992013973549E-03 -2.324721029791894E-03
2451719.500000000 = A.D. 2000-Jun-24 00:00:00.0000 TDB 
   1.488419934014724E+01 -1.326441696142023E+01 -2.438394196126548E-01
   5.315657398822624E-05  3.402187130251006E-03  6.525313848265789E-04
2451724.500000000 = A.D. 2000-Jun-29 00:00:00.0000 TDB 
   1.489588126004392E+01 -1.325013760642378E+01 -2.422742760155809E-01
   2.627378259169210E-03  3.116747139774020E-03  2.658205387282746E-03
2451729.500000000 = A.D. 2000-Jul-04 00:00:00.0000 TDB 
   1.491009774255987E+01 -1.323639977674645E+01 -2.406754899653081E-01
   5.129441129652118E-03  2.303507947891725E-03  7.256734272976296E-04
2451734.500000000 = A.D. 2000-Jul-09 00:00:00.0000 TDB 
   1.492493819497420E+01 -1.322313028253075E+01 -2.415461173785054E-01
   3.909429365716887E-03  2.158222624760479E-03 -2.277245549501772E-03
2451739.500000000 = A.D. 2000-Jul-14 00:00:00.0000 TDB 
   1.493758693993113E+01 -1.320955910142630E+01 -2.437779390564134E-01
   7.597992858389495E-04  2.887798411420266E-03 -2.005747993013137E-03
2451744.500000000 = A.D. 2000-Jul-19 00:00:00.0000 TDB 
   1.494838871382142E+01 -1.319533690071627E+01 -2.442927494560423E-01
   2.435896722903499E-04  3.440785259185277E-03  1.167434642761717E-03
2451749.500000000 = A.D. 2000-Jul-24 00:00:00.0000 TDB 
   1.496037342258535E+01 -1.318104557497647E+01 -2.424955242465020E-01
   3.149114008755074E-03  3.004579562771200E-03  2.606914278676805E-03
